BLUEWALKER-3            
1 53807U 22111AL  26200.40152100  .00002815  00000+0  82884-4 0  9992
2 53807  53.2278 242.6898 0004640 285.1596  74.8896 15.38634996215162
SPACEMOBILE-003         
1 61045U 24163A   26200.87957500  .00001539  00000+0  83736-4 0  9991
2 61045  52.9673 159.1017 0004268 209.3875 150.6879 15.20720283102748
SPACEMOBILE-005         
1 61046U 24163B   26200.86299743  .00002757  00000+0  13835-3 0  9994
2 61046  52.9750 159.1324 0008503 210.2048 149.8457 15.20725340102735
SPACEMOBILE-001         
1 61047U 24163C   26200.26985510  .00000003  00000+0  14868-4 0  9993
2 61047  52.9694 161.5697 0006820 206.0016 154.0637 15.20700176102649
SPACEMOBILE-002         
1 61048U 24163D   26200.18806198  .00010534  00000+0  48876-3 0  9994
2 61048  52.9793 161.9891 0004752 205.9492 154.1265 15.20578455102638
SPACEMOBILE-004         
1 61049U 24163E   26200.30192750  .00010681  00000+0  49323-3 0  9992
2 61049  52.9703 161.2390 0005784 245.4270 114.6122 15.20724685102659
SPACEMOBILE-006         
1 67232U 25309A   26200.35692778  .00001577  00000+0  90416-4 0  9999
2 67232  52.9938 184.2683 0009693 229.6754 130.3394 15.18667029 31486
SPACEMOBILE-008         
1 69589U 26139A   26200.77741476  .00000320  00000+0  35001-4 0  9998
2 69589  52.9951 114.6038 0005225  67.5009 292.6535 15.12806260  4911
SPACEMOBILE-009         
1 69590U 26139B   26200.71362991  .00000276  00000+0  32618-4 0  9996
2 69590  52.9942 114.9119 0005496  63.0769 297.0783 15.12699537  4900
SPACEMOBILE-010         
1 69591U 26139C   26200.78330804  .00000934  00000+0  70004-4 0  9994
2 69591  52.9948 114.6376 0005492  56.1534 303.9979 15.12539455  4926
